STARLINK-30860          
1 58234U 23171E   25237.11649699 -.00000458  00000+0 -18833-4 0  9995
2 58234  43.0031 274.3084 0001459 276.3489  83.7187 15.02536363100156
STARLINK-30879          
1 58235U 23171F   25237.58336806  .00235871  00000+0  34045-2 0  9998
2 58235  42.9927 165.7705 0023859 186.0492 125.5253 15.54091836  5871
STARLINK-30853          
1 58236U 23171G   25237.12315300 -.00003112  00000+0 -21536-3 0  9990
2 58236  43.0023 274.3486 0001324 269.6142  90.4548 15.02540334100156
STARLINK-30866          
1 58237U 23171H   25237.42557470 -.00000212  00000+0 -57904-6 0  9999
2 58237  43.0033 272.3199 0001679 284.2577  75.8079 15.02533142100206
STARLINK-30817          
1 58238U 23171J   25237.39240005 -.00000647  00000+0 -32850-4 0  9992
2 58238  43.0033 272.9202 0001277 275.6566  84.4131 15.02532224100197
STARLINK-30847          
1 58239U 23171K   25237.12981630  .00000300  00000+0  37280-4 0  9996
2 58239  43.0033 274.3987 0001560 279.0245  81.0421 15.02536802100158
STARLINK-30848          
1 58240U 23171L   25237.14450247  .00000754  00000+0  70909-4 0  9993
2 58240  43.0031 275.3427 0001292 277.0363  83.0332 15.02527570100143
STARLINK-30843          
1 58241U 23171M   25237.13314296 -.00000447  00000+0 -18044-4 0  9999
2 58241  43.0028 274.4106 0001296 274.3819  85.6875 15.02535269100171
STARLINK-30877          
1 58242U 23171N   25237.42890577  .00000295  00000+0  36910-4 0  9994
2 58242  43.0024 272.3414 0001453 273.3382  86.7294 15.02539226100204
STARLINK-30864          
1 58243U 23171P   25237.40560137 -.00000800  00000+0 -44169-4 0  9998
2 58243  43.0022 272.1775 0001439 285.6647  74.4037 15.02535546100104
STARLINK-30854          
1 58244U 23171Q   25237.13116375  .00000726  00000+0  68829-4 0  9994
2 58244  43.0030 275.2573 0001488 287.7064  72.3616 15.02536484100140
STARLINK-30849          
1 58245U 23171R   25237.40892886  .00000619  00000+0  60907-4 0  9993
2 58245  43.0028 272.2005 0001431 275.3212  84.7467 15.02540945100206
STARLINK-30886          
1 58246U 23171S   25237.41559050 -.00000476  00000+0 -20140-4 0  9996
2 58246  43.0022 272.2479 0001409 274.3886  85.6795 15.02532200100206
STARLINK-30850          
1 58247U 23171T   25237.41226028  .00000015  00000+0  16184-4 0  9993
2 58247  43.0027 272.2249 0001548 281.7229  78.3440 15.02535825100206
STARLINK-30823          
1 58248U 23171U   25237.48540247 -.00000476  00000+0 -20155-4 0  9999
2 58248  43.0018 271.9105 0000934 269.7313  90.3422 15.02529740100216
STARLINK-30873          
1 58249U 23171V   25237.42224963  .00000214  00000+0  30881-4 0  9993
2 58249  43.0026 272.2958 0001300 276.5455  83.5239 15.02533787100202
