[{"OBJECT_NAME":"STARLINK-30860","OBJECT_ID":"2023-171E","EPOCH":"2025-08-25T02:47:45.339936","MEAN_MOTION":15.02536363,"ECCENTRICITY":0.00014597,"INCLINATION":43.0031,"RA_OF_ASC_NODE":274.3084,"ARG_OF_PERICENTER":276.3489,"MEAN_ANOMALY":83.7187,"EPHEMERIS_TYPE":0,"CLASSIFICATION_TYPE":"U","NORAD_CAT_ID":58234,"ELEMENT_SET_NO":999,"REV_AT_EPOCH":10015,"BSTAR":-1.8833497e-5,"MEAN_MOTION_DOT":-4.58e-6,"MEAN_MOTION_DDOT":0},{"OBJECT_NAME":"STARLINK-30879","OBJECT_ID":"2023-171F","EPOCH":"2025-08-25T14:00:03.000384","MEAN_MOTION":15.54091836,"ECCENTRICITY":0.00238591,"INCLINATION":42.9927,"RA_OF_ASC_NODE":165.7705,"ARG_OF_PERICENTER":186.0492,"MEAN_ANOMALY":125.5253,"EPHEMERIS_TYPE":0,"CLASSIFICATION_TYPE":"U","NORAD_CAT_ID":58235,"ELEMENT_SET_NO":999,"REV_AT_EPOCH":587,"BSTAR":0.003404529,"MEAN_MOTION_DOT":0.00235871,"MEAN_MOTION_DDOT":0},{"OBJECT_NAME":"STARLINK-30853","OBJECT_ID":"2023-171G","EPOCH":"2025-08-25T02:57:20.419200","MEAN_MOTION":15.02540334,"ECCENTRICITY":0.0001324,"INCLINATION":43.0023,"RA_OF_ASC_NODE":274.3486,"ARG_OF_PERICENTER":269.6142,"MEAN_ANOMALY":90.4548,"EPHEMERIS_TYPE":0,"CLASSIFICATION_TYPE":"U","NORAD_CAT_ID":58236,"ELEMENT_SET_NO":999,"REV_AT_EPOCH":10015,"BSTAR":-0.0002153554,"MEAN_MOTION_DOT":-3.112e-5,"MEAN_MOTION_DDOT":0},{"OBJECT_NAME":"STARLINK-30866","OBJECT_ID":"2023-171H","EPOCH":"2025-08-25T10:12:49.654080","MEAN_MOTION":15.02533142,"ECCENTRICITY":0.00016791,"INCLINATION":43.0033,"RA_OF_ASC_NODE":272.3199,"ARG_OF_PERICENTER":284.2577,"MEAN_ANOMALY":75.8079,"EPHEMERIS_TYPE":0,"CLASSIFICATION_TYPE":"U","NORAD_CAT_ID":58237,"ELEMENT_SET_NO":999,"REV_AT_EPOCH":10020,"BSTAR":-5.79038e-7,"MEAN_MOTION_DOT":-2.12e-6,"MEAN_MOTION_DDOT":0},{"OBJECT_NAME":"STARLINK-30817","OBJECT_ID":"2023-171J","EPOCH":"2025-08-25T09:25:03.364320","MEAN_MOTION":15.02532224,"ECCENTRICITY":0.0001277,"INCLINATION":43.0033,"RA_OF_ASC_NODE":272.9202,"ARG_OF_PERICENTER":275.6566,"MEAN_ANOMALY":84.4131,"EPHEMERIS_TYPE":0,"CLASSIFICATION_TYPE":"U","NORAD_CAT_ID":58238,"ELEMENT_SET_NO":999,"REV_AT_EPOCH":10019,"BSTAR":-3.2849572e-5,"MEAN_MOTION_DOT":-6.47e-6,"MEAN_MOTION_DDOT":0},{"OBJECT_NAME":"STARLINK-30847","OBJECT_ID":"2023-171K","EPOCH":"2025-08-25T03:06:56.128320","MEAN_MOTION":15.02536802,"ECCENTRICITY":0.00015602,"INCLINATION":43.0033,"RA_OF_ASC_NODE":274.3987,"ARG_OF_PERICENTER":279.0245,"MEAN_ANOMALY":81.0421,"EPHEMERIS_TYPE":0,"CLASSIFICATION_TYPE":"U","NORAD_CAT_ID":58239,"ELEMENT_SET_NO":999,"REV_AT_EPOCH":10015,"BSTAR":3.72797e-5,"MEAN_MOTION_DOT":3.0e-6,"MEAN_MOTION_DDOT":0},{"OBJECT_NAME":"STARLINK-30848","OBJECT_ID":"2023-171L","EPOCH":"2025-08-25T03:28:05.013408","MEAN_MOTION":15.0252757,"ECCENTRICITY":0.00012922,"INCLINATION":43.0031,"RA_OF_ASC_NODE":275.3427,"ARG_OF_PERICENTER":277.0363,"MEAN_ANOMALY":83.0332,"EPHEMERIS_TYPE":0,"CLASSIFICATION_TYPE":"U","NORAD_CAT_ID":58240,"ELEMENT_SET_NO":999,"REV_AT_EPOCH":10014,"BSTAR":7.090882e-5,"MEAN_MOTION_DOT":7.54e-6,"MEAN_MOTION_DDOT":0},{"OBJECT_NAME":"STARLINK-30843","OBJECT_ID":"2023-171M","EPOCH":"2025-08-25T03:11:43.551744","MEAN_MOTION":15.02535269,"ECCENTRICITY":0.00012962,"INCLINATION":43.0028,"RA_OF_ASC_NODE":274.4106,"ARG_OF_PERICENTER":274.3819,"MEAN_ANOMALY":85.6875,"EPHEMERIS_TYPE":0,"CLASSIFICATION_TYPE":"U","NORAD_CAT_ID":58241,"ELEMENT_SET_NO":999,"REV_AT_EPOCH":10017,"BSTAR":-1.8044234e-5,"MEAN_MOTION_DOT":-4.47e-6,"MEAN_MOTION_DDOT":0},{"OBJECT_NAME":"STARLINK-30877","OBJECT_ID":"2023-171N","EPOCH":"2025-08-25T10:17:37.458528","MEAN_MOTION":15.02539226,"ECCENTRICITY":0.00014535,"INCLINATION":43.0024,"RA_OF_ASC_NODE":272.3414,"ARG_OF_PERICENTER":273.3382,"MEAN_ANOMALY":86.7294,"EPHEMERIS_TYPE":0,"CLASSIFICATION_TYPE":"U","NORAD_CAT_ID":58242,"ELEMENT_SET_NO":999,"REV_AT_EPOCH":10020,"BSTAR":3.690954e-5,"MEAN_MOTION_DOT":2.95e-6,"MEAN_MOTION_DDOT":0},{"OBJECT_NAME":"STARLINK-30864","OBJECT_ID":"2023-171P","EPOCH":"2025-08-25T09:44:03.958368","MEAN_MOTION":15.02535546,"ECCENTRICITY":0.00014392,"INCLINATION":43.0022,"RA_OF_ASC_NODE":272.1775,"ARG_OF_PERICENTER":285.6647,"MEAN_ANOMALY":74.4037,"EPHEMERIS_TYPE":0,"CLASSIFICATION_TYPE":"U","NORAD_CAT_ID":58243,"ELEMENT_SET_NO":999,"REV_AT_EPOCH":10010,"BSTAR":-4.4168666e-5,"MEAN_MOTION_DOT":-8.0e-6,"MEAN_MOTION_DDOT":0},{"OBJECT_NAME":"STARLINK-30854","OBJECT_ID":"2023-171Q","EPOCH":"2025-08-25T03:08:52.548000","MEAN_MOTION":15.02536484,"ECCENTRICITY":0.00014888,"INCLINATION":43.003,"RA_OF_ASC_NODE":275.2573,"ARG_OF_PERICENTER":287.7064,"MEAN_ANOMALY":72.3616,"EPHEMERIS_TYPE":0,"CLASSIFICATION_TYPE":"U","NORAD_CAT_ID":58244,"ELEMENT_SET_NO":999,"REV_AT_EPOCH":10014,"BSTAR":6.882903e-5,"MEAN_MOTION_DOT":7.26e-6,"MEAN_MOTION_DDOT":0},{"OBJECT_NAME":"STARLINK-30849","OBJECT_ID":"2023-171R","EPOCH":"2025-08-25T09:48:51.453504","MEAN_MOTION":15.02540945,"ECCENTRICITY":0.00014315,"INCLINATION":43.0028,"RA_OF_ASC_NODE":272.2005,"ARG_OF_PERICENTER":275.3212,"MEAN_ANOMALY":84.7467,"EPHEMERIS_TYPE":0,"CLASSIFICATION_TYPE":"U","NORAD_CAT_ID":58245,"ELEMENT_SET_NO":999,"REV_AT_EPOCH":10020,"BSTAR":6.0907048e-5,"MEAN_MOTION_DOT":6.19e-6,"MEAN_MOTION_DDOT":0},{"OBJECT_NAME":"STARLINK-30886","OBJECT_ID":"2023-171S","EPOCH":"2025-08-25T09:58:27.019200","MEAN_MOTION":15.025322,"ECCENTRICITY":0.00014094,"INCLINATION":43.0022,"RA_OF_ASC_NODE":272.2479,"ARG_OF_PERICENTER":274.3886,"MEAN_ANOMALY":85.6795,"EPHEMERIS_TYPE":0,"CLASSIFICATION_TYPE":"U","NORAD_CAT_ID":58246,"ELEMENT_SET_NO":999,"REV_AT_EPOCH":10020,"BSTAR":-2.0140066e-5,"MEAN_MOTION_DOT":-4.76e-6,"MEAN_MOTION_DDOT":0},{"OBJECT_NAME":"STARLINK-30850","OBJECT_ID":"2023-171T","EPOCH":"2025-08-25T09:53:39.288192","MEAN_MOTION":15.02535825,"ECCENTRICITY":0.00015486,"INCLINATION":43.0027,"RA_OF_ASC_NODE":272.2249,"ARG_OF_PERICENTER":281.7229,"MEAN_ANOMALY":78.344,"EPHEMERIS_TYPE":0,"CLASSIFICATION_TYPE":"U","NORAD_CAT_ID":58247,"ELEMENT_SET_NO":999,"REV_AT_EPOCH":10020,"BSTAR":1.6183786e-5,"MEAN_MOTION_DOT":1.5e-7,"MEAN_MOTION_DDOT":0},{"OBJECT_NAME":"STARLINK-30823","OBJECT_ID":"2023-171U","EPOCH":"2025-08-25T11:38:58.773408","MEAN_MOTION":15.0252974,"ECCENTRICITY":9.347e-5,"INCLINATION":43.0018,"RA_OF_ASC_NODE":271.9105,"ARG_OF_PERICENTER":269.7313,"MEAN_ANOMALY":90.3422,"EPHEMERIS_TYPE":0,"CLASSIFICATION_TYPE":"U","NORAD_CAT_ID":58248,"ELEMENT_SET_NO":999,"REV_AT_EPOCH":10021,"BSTAR":-2.0154909e-5,"MEAN_MOTION_DOT":-4.76e-6,"MEAN_MOTION_DDOT":0},{"OBJECT_NAME":"STARLINK-30873","OBJECT_ID":"2023-171V","EPOCH":"2025-08-25T10:08:02.368032","MEAN_MOTION":15.02533787,"ECCENTRICITY":0.00013003,"INCLINATION":43.0026,"RA_OF_ASC_NODE":272.2958,"ARG_OF_PERICENTER":276.5455,"MEAN_ANOMALY":83.5239,"EPHEMERIS_TYPE":0,"CLASSIFICATION_TYPE":"U","NORAD_CAT_ID":58249,"ELEMENT_SET_NO":999,"REV_AT_EPOCH":10020,"BSTAR":3.0881477e-5,"MEAN_MOTION_DOT":2.14e-6,"MEAN_MOTION_DDOT":0}]
